CCSDS_OMM_VERS = 2.0
CREATION_DATE  = 
ORIGINATOR     = 

OBJECT_NAME    = UNKNOWN
OBJECT_ID      = 
CENTER_NAME    = EARTH
REF_FRAME      = TEME
TIME_SYSTEM    = UTC
MEAN_ELEMENT_THEORY = SGP/SGP4

EPOCH          = 2026-04-01T09:03:07.458624
MEAN_MOTION    = 13.83001276
ECCENTRICITY   = .0169871
INCLINATION    = 99.0968
RA_OF_ASC_NODE = 249.0197
ARG_OF_PERICENTER = 0.0388
MEAN_ANOMALY   = 30.1978

EPHEMERIS_TYPE = 0
CLASSIFICATION_TYPE = U
NORAD_CAT_ID   = 82739
ELEMENT_SET_NO = 999
REV_AT_EPOCH   = 62126
BSTAR          = .514E-3
MEAN_MOTION_DOT = .584E-5
MEAN_MOTION_DDOT = 0

CCSDS_OMM_VERS = 2.0
CREATION_DATE  = 
ORIGINATOR     = 

OBJECT_NAME    = UNKNOWN
OBJECT_ID      = 
CENTER_NAME    = EARTH
REF_FRAME      = TEME
TIME_SYSTEM    = UTC
MEAN_ELEMENT_THEORY = SGP/SGP4

EPOCH          = 2026-04-01T11:10:05.515968
MEAN_MOTION    = 13.66552662
ECCENTRICITY   = .0194007
INCLINATION    = 102.8419
RA_OF_ASC_NODE = 167.2591
ARG_OF_PERICENTER = 21.6107
MEAN_ANOMALY   = 339.3075

EPHEMERIS_TYPE = 0
CLASSIFICATION_TYPE = U
NORAD_CAT_ID   = 82741
ELEMENT_SET_NO = 999
REV_AT_EPOCH   = 61206
BSTAR          = .17236E-2
MEAN_MOTION_DOT = .1559E-4
MEAN_MOTION_DDOT = 0

CCSDS_OMM_VERS = 2.0
CREATION_DATE  = 
ORIGINATOR     = 

OBJECT_NAME    = UNKNOWN
OBJECT_ID      = 
CENTER_NAME    = EARTH
REF_FRAME      = TEME
TIME_SYSTEM    = UTC
MEAN_ELEMENT_THEORY = SGP/SGP4

EPOCH          = 2026-03-31T07:47:13.572096
MEAN_MOTION    = 13.09121572
ECCENTRICITY   = .0019769
INCLINATION    = 90.3465
RA_OF_ASC_NODE = 41.6432
ARG_OF_PERICENTER = 171.3362
MEAN_ANOMALY   = 188.8111

EPHEMERIS_TYPE = 0
CLASSIFICATION_TYPE = U
NORAD_CAT_ID   = 82783
ELEMENT_SET_NO = 999
REV_AT_EPOCH   = 51856
BSTAR          = .38764E-2
MEAN_MOTION_DOT = .1338E-4
MEAN_MOTION_DDOT = 0

CCSDS_OMM_VERS = 2.0
CREATION_DATE  = 
ORIGINATOR     = 

OBJECT_NAME    = UNKNOWN
OBJECT_ID      = 
CENTER_NAME    = EARTH
REF_FRAME      = TEME
TIME_SYSTEM    = UTC
MEAN_ELEMENT_THEORY = SGP/SGP4

EPOCH          = 2026-03-31T23:23:27.056544
MEAN_MOTION    = 14.35883151
ECCENTRICITY   = .0048489
INCLINATION    = 99.7965
RA_OF_ASC_NODE = 271.3382
ARG_OF_PERICENTER = 64.9555
MEAN_ANOMALY   = 295.6650

EPHEMERIS_TYPE = 0
CLASSIFICATION_TYPE = U
NORAD_CAT_ID   = 82820
ELEMENT_SET_NO = 999
REV_AT_EPOCH   = 64130
BSTAR          = .12861E-2
MEAN_MOTION_DOT = .3726E-4
MEAN_MOTION_DDOT = 0

CCSDS_OMM_VERS = 2.0
CREATION_DATE  = 
ORIGINATOR     = 

OBJECT_NAME    = UNKNOWN
OBJECT_ID      = 
CENTER_NAME    = EARTH
REF_FRAME      = TEME
TIME_SYSTEM    = UTC
MEAN_ELEMENT_THEORY = SGP/SGP4

EPOCH          = 2026-03-25T11:43:14.890656
MEAN_MOTION    = 11.29179881
ECCENTRICITY   = .0175129
INCLINATION    = 65.0952
RA_OF_ASC_NODE = 253.4585
ARG_OF_PERICENTER = 314.9407
MEAN_ANOMALY   = 65.8445

EPHEMERIS_TYPE = 0
CLASSIFICATION_TYPE = U
NORAD_CAT_ID   = 82829
ELEMENT_SET_NO = 999
REV_AT_EPOCH   = 49768
BSTAR          = .69735E-2
MEAN_MOTION_DOT = .21E-5
MEAN_MOTION_DDOT = 0

CCSDS_OMM_VERS = 2.0
CREATION_DATE  = 
ORIGINATOR     = 

OBJECT_NAME    = UNKNOWN
OBJECT_ID      = 
CENTER_NAME    = EARTH
REF_FRAME      = TEME
TIME_SYSTEM    = UTC
MEAN_ELEMENT_THEORY = SGP/SGP4

EPOCH          = 2026-03-30T22:53:30.091200
MEAN_MOTION    = 13.88258393
ECCENTRICITY   = .0131046
INCLINATION    = 82.6921
RA_OF_ASC_NODE = 339.7053
ARG_OF_PERICENTER = 335.3291
MEAN_ANOMALY   = 24.1638

EPHEMERIS_TYPE = 0
CLASSIFICATION_TYPE = U
NORAD_CAT_ID   = 82854
ELEMENT_SET_NO = 999
REV_AT_EPOCH   = 62281
BSTAR          = .17411E-2
MEAN_MOTION_DOT = .2243E-4
MEAN_MOTION_DDOT = 0

CCSDS_OMM_VERS = 2.0
CREATION_DATE  = 
ORIGINATOR     = 

OBJECT_NAME    = UNKNOWN
OBJECT_ID      = 
CENTER_NAME    = EARTH
REF_FRAME      = TEME
TIME_SYSTEM    = UTC
MEAN_ELEMENT_THEORY = SGP/SGP4

EPOCH          = 2026-04-01T05:21:42.261984
MEAN_MOTION    = 14.25324043
ECCENTRICITY   = .0039941
INCLINATION    = 99.9958
RA_OF_ASC_NODE = 5.4355
ARG_OF_PERICENTER = 341.2147
MEAN_ANOMALY   = 18.7552

EPHEMERIS_TYPE = 0
CLASSIFICATION_TYPE = U
NORAD_CAT_ID   = 82873
ELEMENT_SET_NO = 999
REV_AT_EPOCH   = 63682
BSTAR          = .1563E-2
MEAN_MOTION_DOT = .3659E-4
MEAN_MOTION_DDOT = 0

CCSDS_OMM_VERS = 2.0
CREATION_DATE  = 
ORIGINATOR     = 

OBJECT_NAME    = UNKNOWN
OBJECT_ID      = 
CENTER_NAME    = EARTH
REF_FRAME      = TEME
TIME_SYSTEM    = UTC
MEAN_ELEMENT_THEORY = SGP/SGP4

EPOCH          = 2026-04-01T04:47:31.461216
MEAN_MOTION    = 14.15376682
ECCENTRICITY   = .0376718
INCLINATION    = 98.6894
RA_OF_ASC_NODE = 76.9418
ARG_OF_PERICENTER = 329.1838
MEAN_ANOMALY   = 28.7696

EPHEMERIS_TYPE = 0
CLASSIFICATION_TYPE = U
NORAD_CAT_ID   = 82875
ELEMENT_SET_NO = 999
REV_AT_EPOCH   = 55995
BSTAR          = .35534E-3
MEAN_MOTION_DOT = .1326E-4
MEAN_MOTION_DDOT = 0

CCSDS_OMM_VERS = 2.0
CREATION_DATE  = 
ORIGINATOR     = 

OBJECT_NAME    = UNKNOWN
OBJECT_ID      = 
CENTER_NAME    = EARTH
REF_FRAME      = TEME
TIME_SYSTEM    = UTC
MEAN_ELEMENT_THEORY = SGP/SGP4

EPOCH          = 2026-04-01T01:03:39.048480
MEAN_MOTION    = 14.33728389
ECCENTRICITY   = .0024626
INCLINATION    = 98.9619
RA_OF_ASC_NODE = 214.8219
ARG_OF_PERICENTER = 93.3219
MEAN_ANOMALY   = 267.0782

EPHEMERIS_TYPE = 0
CLASSIFICATION_TYPE = U
NORAD_CAT_ID   = 82893
ELEMENT_SET_NO = 999
REV_AT_EPOCH   = 43962
BSTAR          = .39001E-2
MEAN_MOTION_DOT = .10836E-3
MEAN_MOTION_DDOT = 0

CCSDS_OMM_VERS = 2.0
CREATION_DATE  = 
ORIGINATOR     = 

OBJECT_NAME    = UNKNOWN
OBJECT_ID      = 
CENTER_NAME    = EARTH
REF_FRAME      = TEME
TIME_SYSTEM    = UTC
MEAN_ELEMENT_THEORY = SGP/SGP4

EPOCH          = 2026-03-31T05:44:02.700960
MEAN_MOTION    = 13.28483873
ECCENTRICITY   = .0769663
INCLINATION    = 65.8339
RA_OF_ASC_NODE = 284.0616
ARG_OF_PERICENTER = 219.5894
MEAN_ANOMALY   = 134.6466

EPHEMERIS_TYPE = 0
CLASSIFICATION_TYPE = U
NORAD_CAT_ID   = 82912
ELEMENT_SET_NO = 999
REV_AT_EPOCH   = 59373
BSTAR          = .12348E-2
MEAN_MOTION_DOT = .2941E-4
MEAN_MOTION_DDOT = 0

CCSDS_OMM_VERS = 2.0
CREATION_DATE  = 
ORIGINATOR     = 

OBJECT_NAME    = UNKNOWN
OBJECT_ID      = 
CENTER_NAME    = EARTH
REF_FRAME      = TEME
TIME_SYSTEM    = UTC
MEAN_ELEMENT_THEORY = SGP/SGP4

EPOCH          = 2026-03-31T20:57:38.909664
MEAN_MOTION    = 13.26618495
ECCENTRICITY   = .0401852
INCLINATION    = 99.8181
RA_OF_ASC_NODE = 244.7810
ARG_OF_PERICENTER = 112.3834
MEAN_ANOMALY   = 252.0374

EPHEMERIS_TYPE = 0
CLASSIFICATION_TYPE = U
NORAD_CAT_ID   = 82961
ELEMENT_SET_NO = 999
REV_AT_EPOCH   = 57016
BSTAR          = .17286E-1
MEAN_MOTION_DOT = .11858E-3
MEAN_MOTION_DDOT = 0

CCSDS_OMM_VERS = 2.0
CREATION_DATE  = 
ORIGINATOR     = 

OBJECT_NAME    = UNKNOWN
OBJECT_ID      = 
CENTER_NAME    = EARTH
REF_FRAME      = TEME
TIME_SYSTEM    = UTC
MEAN_ELEMENT_THEORY = SGP/SGP4

EPOCH          = 2026-03-13T16:17:22.427520
MEAN_MOTION    = 13.60232436
ECCENTRICITY   = .0003543
INCLINATION    = 100.1074
RA_OF_ASC_NODE = 160.1438
ARG_OF_PERICENTER = 183.0318
MEAN_ANOMALY   = 177.0799

EPHEMERIS_TYPE = 0
CLASSIFICATION_TYPE = U
NORAD_CAT_ID   = 82965
ELEMENT_SET_NO = 999
REV_AT_EPOCH   = 53681
BSTAR          = .15749E-2
MEAN_MOTION_DOT = .1132E-4
MEAN_MOTION_DDOT = 0

