UNKNOWN                 
1 82739U          26091.37716966  .00000584  00000+0  51400-3 0  9991
2 82739  99.0968 249.0197 0169871   0.0388  30.1978 13.83001276621261
UNKNOWN                 
1 82741U          26091.46534162  .00001559  00000+0  17236-2 0  9991
2 82741 102.8419 167.2591 0194007  21.6107 339.3075 13.66552662612065
UNKNOWN                 
1 82783U          26090.32446264  .00001338  00000+0  38764-2 0  9990
2 82783  90.3465  41.6432 0019769 171.3362 188.8111 13.09121572518566
UNKNOWN                 
1 82820U          26090.97461871  .00003726  00000+0  12861-2 0  9997
2 82820  99.7965 271.3382 0048489  64.9555 295.6650 14.35883151641306
UNKNOWN                 
1 82829U          26084.48836679  .00000210  00000+0  69735-2 0  9994
2 82829  65.0952 253.4585 0175129 314.9407  65.8445 11.29179881497686
UNKNOWN                 
1 82854U          26089.95382050  .00002243  00000+0  17411-2 0  9990
2 82854  82.6921 339.7053 0131046 335.3291  24.1638 13.88258393622811
UNKNOWN                 
1 82873U          26091.22340581  .00003659  00000+0  15630-2 0  9990
2 82873  99.9958   5.4355 0039941 341.2147  18.7552 14.25324043636820
UNKNOWN                 
1 82875U          26091.19966969  .00001326  00000+0  35534-3 0  9997
2 82875  98.6894  76.9418 0376718 329.1838  28.7696 14.15376682559951
UNKNOWN                 
1 82893U          26091.04420195  .00010836  00000+0  39001-2 0  9995
2 82893  98.9619 214.8219 0024626  93.3219 267.0782 14.33728389439622
UNKNOWN                 
1 82912U          26090.23892015  .00002941  00000+0  12348-2 0  9994
2 82912  65.8339 284.0616 0769663 219.5894 134.6466 13.28483873593734
UNKNOWN                 
1 82961U          26090.87336701  .00011858  00000+0  17286-1 0  9995
2 82961  99.8181 244.7810 0401852 112.3834 252.0374 13.26618495570169
UNKNOWN                 
1 82965U          26072.67873180  .00001132  00000+0  15749-2 0  9991
2 82965 100.1074 160.1438 0003543 183.0318 177.0799 13.60232436536810
